STARLINK-37374          
1 69153U 26111F   26168.22554299  .00036766  00000+0  66980-3 0  9995
2 69153  53.1608 153.1393 0002169  68.6189 291.5051 15.49145398  4242
STARLINK-37235          
1 69154U 26111G   26168.11778321  .00044624  00000+0  80508-3 0  9992
2 69154  53.1590 153.8958 0001149 111.9709 248.1422 15.49334826  4228
STARLINK-37329          
1 69155U 26111H   26168.58334491 -.02582267  00000+0 -40131-1 0  9990
2 69155  53.1601 150.0257 0001371  80.0113  89.2231 15.56700854  5617
STARLINK-37345          
1 69156U 26111J   26168.58334491 -.02536307  00000+0 -37790-1 0  9992
2 69156  53.1607 149.9574 0001353  79.5056 122.9409 15.58363297  5612
STARLINK-37353          
1 69157U 26111K   26168.58334491 -.02521923  00000+0 -37052-1 0  9992
2 69157  53.1603 149.9471 0001302  87.8928 119.4569 15.58706780  5615
STARLINK-37363          
1 69158U 26111L   26168.58334491 -.02503296  00000+0 -36969-1 0  9992
2 69158  53.1607 149.9533 0001516  82.4809 122.0082 15.58538703  5613
STARLINK-37343          
1 69159U 26111M   26168.54794453  .00046685  00000+0  84188-3 0  9995
2 69159  53.1616 151.5941 0000505  86.8180 273.2887 15.49327989  4290
STARLINK-37328          
1 69160U 26111N   26168.58334491 -.02522922  00000+0 -36276-1 0  9993
2 69160  53.1600 149.9080 0001453  86.0969 140.2986 15.59268619  5615
STARLINK-37311          
1 69161U 26111P   26168.58334491 -.02514898  00000+0 -32157-1 0  9991
2 69161  53.1598 149.9787 0001440  84.2039 107.9939 15.62269939  5618
STARLINK-36286          
1 69162U 26111Q   26168.58334491  .00000625  00000+0  19323-4 0  9999
2 69162  53.1596 150.3347 0001966 102.0918 274.4870 15.49279305  5610
STARLINK-37196          
1 69163U 26111R   26168.58334491 -.02568684  00000+0 -31337-1 0  9994
2 69163  53.1602 149.9811 0001402  85.0787 105.7901 15.63539870  5611
STARLINK-36288          
1 69164U 26111S   26168.58334491 -.02701211  00000+0 -51644-1 0  9993
2 69164  53.1599 150.3076 0001140 133.3456 256.6562 15.51246252  5610
STARLINK-37445          
1 69165U 26111T   26168.58334491  .00010460  00000+0  19623-3 0  9992
2 69165  53.1597 150.4090 0000742  61.9509 277.7705 15.49255822  5611
STARLINK-37491          
1 69166U 26111U   26168.58334491 -.02584988  00000+0 -39924-1 0  9992
2 69166  53.1597 150.1081 0001170  61.7375  66.8341 15.56872089  5615
STARLINK-37474          
1 69167U 26111V   26168.58334491 -.01067724  00000+0 -13787-1 0  9995
2 69167  53.1603 149.9706 0001461  84.8945 110.8405 15.60864209  5617
STARLINK-37469          
1 69168U 26111W   26168.11340187  .00049529  00000+0  89219-3 0  9999
2 69168  53.1592 153.8628 0000956 100.3726 259.7391 15.49333154  4221
STARLINK-37515          
1 69169U 26111X   26168.58334491 -.02084832  00000+0 -36827-1 0  9997
2 69169  53.1597 150.1723 0000735  96.5821 359.9516 15.53076634  5618
STARLINK-37437          
1 69170U 26111Y   26168.58334491 -.02513851  00000+0 -39479-1 0  9993
2 69170  53.1602 150.0109 0001443  78.3262  97.2119 15.56938881  5613
STARLINK-37392          
1 69171U 26111Z   26168.58334491 -.01096913  00000+0 -17411-1 0  9990
2 69171  53.1605 150.1014 0001290  69.8717  60.5507 15.55501186  5610
STARLINK-37472          
1 69172U 26111AA  26168.58334491 -.00008239  00000+0 -14011-3 0  9999
2 69172  53.1599 150.6229 0000472 105.6231 126.5064 15.49336574  5618
STARLINK-37461          
1 69173U 26111AB  26168.23430075  .00033586  00000+0  60914-3 0  9991
2 69173  53.1595 153.1915 0000968  87.2437 272.8683 15.49318483  4247
STARLINK-37333          
1 69174U 26111AC  26168.58334491 -.02201715  00000+0 -42414-1 0  9993
2 69174  53.1599 150.3295 0000638 111.4801 266.7577 15.50880741  5610
STARLINK-37385          
1 69175U 26111AD  26168.42015457  .00061320  00000+0  11016-2 0  9992
2 69175  53.1606 152.2151 0001176  96.7110 263.4033 15.49318180  4271
STARLINK-37414          
1 69176U 26111AE  26168.58334491 -.02870275  00000+0 -53099-1 0  9999
2 69176  53.1601 150.1393 0001641  84.8744  26.6436 15.52395648  5613
STRIX-7                 
1 69177U 26112A   26168.57157571  .00001621  00000+0  14079-3 0  9996
2 69177  44.9069 190.4305 0023203  49.3792 310.9094 15.01436523  3931
SHENZHOU-23 (SZ-23)     
1 69180U 26113A   26168.42493671  .00019059  00000+0  22524-3 0  9997
2 69180  41.4698 320.5549 0007448  79.0954 281.0722 15.60819135293110
STARLINK-37380          
1 69182U 26114A   26168.53618961  .00128120  00000+0  72955-3 0  9996
2 69182  53.1571 200.7674 0001108 100.5163 259.5983 15.78090164  4828
STARLINK-37089          
1 69183U 26114B   26168.34525918  .00341913  00000+0  18747-2 0  9990
2 69183  53.1578 201.7099 0000249 108.7388 251.3661 15.78296635  4792
STARLINK-37428          
1 69184U 26114C   26168.53385038  .00085500  00000+0  49098-3 0  9990
2 69184  53.1572 200.7519 0001218  84.0421 276.0740 15.78071675  4825
