OBJECT_NAME,OBJECT_ID,EPOCH,MEAN_MOTION,ECCENTRICITY,INCLINATION,RA_OF_ASC_NODE,ARG_OF_PERICENTER,MEAN_ANOMALY,EPHEMERIS_TYPE,CLASSIFICATION_TYPE,NORAD_CAT_ID,ELEMENT_SET_NO,REV_AT_EPOCH,BSTAR,MEAN_MOTION_DOT,MEAN_MOTION_DDOT
STARLINK-37374,2026-111F,2026-06-17T05:24:46.914336,15.49145398,.00021693,53.1608,153.1393,68.6189,291.5051,0,U,69153,999,424,.66979699E-3,.36766E-3,0
STARLINK-37235,2026-111G,2026-06-17T02:49:36.469344,15.49334826,.00011498,53.1590,153.8958,111.9709,248.1422,0,U,69154,999,422,.80508217E-3,.44624E-3,0
STARLINK-37329,2026-111H,2026-06-17T14:00:01.000224,15.56700854,.00013713,53.1601,150.0257,80.0113,89.2231,0,U,69155,999,561,-.40131482E-1,-.2582267E-1,0
STARLINK-37345,2026-111J,2026-06-17T14:00:01.000224,15.58363297,.00013532,53.1607,149.9574,79.5056,122.9409,0,U,69156,999,561,-.37789531E-1,-.2536307E-1,0
STARLINK-37353,2026-111K,2026-06-17T14:00:01.000224,15.58706780,.00013024,53.1603,149.9471,87.8928,119.4569,0,U,69157,999,561,-.37052299E-1,-.2521923E-1,0
STARLINK-37363,2026-111L,2026-06-17T14:00:01.000224,15.58538703,.00015168,53.1607,149.9533,82.4809,122.0082,0,U,69158,999,561,-.36969343E-1,-.2503296E-1,0
STARLINK-37343,2026-111M,2026-06-17T13:09:02.407392,15.49327989,.00005056,53.1616,151.5941,86.8180,273.2887,0,U,69159,999,429,.84188334E-3,.46685E-3,0
STARLINK-37328,2026-111N,2026-06-17T14:00:01.000224,15.59268619,.00014533,53.1600,149.9080,86.0969,140.2986,0,U,69160,999,561,-.36276034E-1,-.2522922E-1,0
STARLINK-37311,2026-111P,2026-06-17T14:00:01.000224,15.62269939,.00014409,53.1598,149.9787,84.2039,107.9939,0,U,69161,999,561,-.32156865E-1,-.2514898E-1,0
STARLINK-36286,2026-111Q,2026-06-17T14:00:01.000224,15.49279305,.00019663,53.1596,150.3347,102.0918,274.4870,0,U,69162,999,561,.19323146E-4,.625E-5,0
STARLINK-37196,2026-111R,2026-06-17T14:00:01.000224,15.63539870,.00014029,53.1602,149.9811,85.0787,105.7901,0,U,69163,999,561,-.31336851E-1,-.2568684E-1,0
STARLINK-36288,2026-111S,2026-06-17T14:00:01.000224,15.51246252,.00011408,53.1599,150.3076,133.3456,256.6562,0,U,69164,999,561,-.5164447E-1,-.2701211E-1,0
STARLINK-37445,2026-111T,2026-06-17T14:00:01.000224,15.49255822,.00007422,53.1597,150.4090,61.9509,277.7705,0,U,69165,999,561,.19623331E-3,.1046E-3,0
STARLINK-37491,2026-111U,2026-06-17T14:00:01.000224,15.56872089,.00011706,53.1597,150.1081,61.7375,66.8341,0,U,69166,999,561,-.39924152E-1,-.2584988E-1,0
STARLINK-37474,2026-111V,2026-06-17T14:00:01.000224,15.60864209,.00014618,53.1603,149.9706,84.8945,110.8405,0,U,69167,999,561,-.13787369E-1,-.1067724E-1,0
STARLINK-37469,2026-111W,2026-06-17T02:43:17.921568,15.49333154,.00009569,53.1592,153.8628,100.3726,259.7391,0,U,69168,999,422,.89219412E-3,.49529E-3,0
STARLINK-37515,2026-111X,2026-06-17T14:00:01.000224,15.53076634,.00007351,53.1597,150.1723,96.5821,359.9516,0,U,69169,999,561,-.36827003E-1,-.2084832E-1,0
STARLINK-37437,2026-111Y,2026-06-17T14:00:01.000224,15.56938881,.00014431,53.1602,150.0109,78.3262,97.2119,0,U,69170,999,561,-.39479445E-1,-.2513851E-1,0
STARLINK-37392,2026-111Z,2026-06-17T14:00:01.000224,15.55501186,.00012904,53.1605,150.1014,69.8717,60.5507,0,U,69171,999,561,-.17411094E-1,-.1096913E-1,0
STARLINK-37472,2026-111AA,2026-06-17T14:00:01.000224,15.49336574,.00004726,53.1599,150.6229,105.6231,126.5064,0,U,69172,999,561,-.14011414E-3,-.8239E-4,0
STARLINK-37461,2026-111AB,2026-06-17T05:37:23.584800,15.49318483,.00009681,53.1595,153.1915,87.2437,272.8683,0,U,69173,999,424,.60913969E-3,.33586E-3,0
STARLINK-37333,2026-111AC,2026-06-17T14:00:01.000224,15.50880741,.00006384,53.1599,150.3295,111.4801,266.7577,0,U,69174,999,561,-.42414228E-1,-.2201715E-1,0
STARLINK-37385,2026-111AD,2026-06-17T10:05:01.354848,15.49318180,.0001176,53.1606,152.2151,96.7110,263.4033,0,U,69175,999,427,.11015858E-2,.6132E-3,0
STARLINK-37414,2026-111AE,2026-06-17T14:00:01.000224,15.52395648,.0001641,53.1601,150.1393,84.8744,26.6436,0,U,69176,999,561,-.53099131E-1,-.2870275E-1,0
STRIX-7,2026-112A,2026-06-17T13:43:04.141344,15.01436523,.00232038,44.9069,190.4305,49.3792,310.9094,0,U,69177,999,393,.14078785E-3,.1621E-4,0
SHENZHOU-23 (SZ-23),2026-113A,2026-06-17T10:11:54.531744,15.60819135,.00074482,41.4698,320.5549,79.0954,281.0722,0,U,69180,999,29311,.22523707E-3,.19059E-3,0
STARLINK-37380,2026-114A,2026-06-17T12:52:06.782304,15.78090164,.00011087,53.1571,200.7674,100.5163,259.5983,0,U,69182,999,482,.72955227E-3,.12812E-2,0
STARLINK-37089,2026-114B,2026-06-17T08:17:10.393152,15.78296635,.00002498,53.1578,201.7099,108.7388,251.3661,0,U,69183,999,479,.18747203E-2,.341913E-2,0
STARLINK-37428,2026-114C,2026-06-17T12:48:44.672832,15.78071675,.00012182,53.1572,200.7519,84.0421,276.0740,0,U,69184,999,482,.49097909E-3,.855E-3,0
